[{"OBJECT_NAME":"IRIDE FM8","OBJECT_ID":"2025-276AN","EPOCH":"2026-03-09T18:00:06.771168","MEAN_MOTION":15.18849115,"ECCENTRICITY":0.00041319,"INCLINATION":97.4262,"RA_OF_ASC_NODE":143.9879,"ARG_OF_PERICENTER":23.1376,"MEAN_ANOMALY":337.0044,"EPHEMERIS_TYPE":0,"CLASSIFICATION_TYPE":"U","NORAD_CAT_ID":66702,"ELEMENT_SET_NO":999,"REV_AT_EPOCH":1532,"BSTAR":0.0003807505,"MEAN_MOTION_DOT":7.869e-5,"MEAN_MOTION_DDOT":0},{"OBJECT_NAME":"NAHLA","OBJECT_ID":"2025-276DC","EPOCH":"2026-03-09T17:58:03.160416","MEAN_MOTION":15.18321471,"ECCENTRICITY":0.00019909,"INCLINATION":97.4271,"RA_OF_ASC_NODE":143.9992,"ARG_OF_PERICENTER":353.62,"MEAN_ANOMALY":6.5008,"EPHEMERIS_TYPE":0,"CLASSIFICATION_TYPE":"U","NORAD_CAT_ID":66764,"ELEMENT_SET_NO":999,"REV_AT_EPOCH":1532,"BSTAR":0.00020881065,"MEAN_MOTION_DOT":4.218e-5,"MEAN_MOTION_DDOT":0}]
