IRIDE FM8               
1 66702U 25276AN  26068.75007836  .00007869  00000+0  38075-3 0  9996
2 66702  97.4262 143.9879 0004132  23.1376 337.0044 15.18849115 15321
NAHLA                   
1 66764U 25276DC  26068.74864769  .00004218  00000+0  20881-3 0  9990
2 66764  97.4271 143.9992 0001991 353.6200   6.5008 15.18321471 15320
